JINJUSat 1B
1 63210U 25052A   26200.69621157  .00008989  00000-0  27187-3 0  9995
2 63210  97.3956  97.5108 0002706  16.4085 343.7245 15.34436603 75085
NUSHSAT 1
1 63211U 25052B   26200.68497766  .00011266  00000-0  31190-3 0  9993
2 63211  97.3932  98.1830 0002689  30.2578 329.8821 15.37148997 75130
TEVEL2-4
1 63213U 25052D   26201.16378951  .00010365  00000-0  30102-3 0  9994
2 63213  97.3852  97.6288 0003112  41.9336 318.2146 15.35673230 75174
TEVEL2-5
1 63214U 25052E   26200.60165345  .00010499  00000-0  30684-3 0  9997
2 63214  97.3852  97.0033 0003191  45.3967 314.7537 15.35471509 75082
TEVEL2-6
1 63215U 25052F   26200.67989982  .00009969  00000-0  29179-3 0  9993
2 63215  97.3856  97.0665 0003266  47.0245 313.1272 15.35437175 75090
TEVEL2-1
1 63217U 25052H   26201.17701522  .00010109  00000-0  30116-3 0  9994
2 63217  97.3829  97.1489 0003820  49.4597 310.6978 15.34874825 75157
TEVEL2-3
1 63218U 25052J   26201.17037093  .00010057  00000-0  29902-3 0  9993
2 63218  97.3838  97.1684 0003664  50.0239 310.1326 15.34938148 75153
TEVEL2-2
1 63219U 25052K   26200.98152583  .00010142  00000-0  30206-3 0  9998
2 63219  97.3829  96.9562 0003930  49.9318 310.2269 15.34881558 75123
TEVEL2-9
1 63237U 25052AD  26200.21882993  .00008721  00000-0  27749-3 0  9997
2 63237  97.3893  95.4966 0007321  45.4826 314.7014 15.32806992 74931
TEVEL2-7
1 63238U 25052AE  26200.46202924  .00008616  00000-0  27686-3 0  9998
2 63238  97.3895  95.6412 0007412  45.1189 315.0654 15.32492190 74960
TEVEL2-8
1 63239U 25052AF  26200.20940773  .00008420  00000-0  27078-3 0  9990
2 63239  97.3897  95.3655 0007478  46.6510 313.5354 15.32473641 74921
SPIRONE
1 66657U 25274H   26200.74669989  .00001203  00000-0  11916-3 0  9995
2 66657  97.7471 129.5746 0010357 265.8239  94.1797 14.93661944 35082
K-HERO
1 66660U 25274L   26201.27809477  .00001251  00000-0  12234-3 0  9993
2 66660  97.7479 130.2837 0012239 268.6958  91.2860 14.94070919 35170
SNUGLITE-III DURI
1 66661U 25274M   26201.26512902  .00000720  00000-0  72669-4 0  9996
2 66661  97.7475 130.2918 0012908 269.8508  90.1233 14.94097626 35170
SAKHACUBE-CHOLBON
1 67290U 25313AU  26201.16132795  .00005250  00000-0  21053-3 0  9999
2 67290  97.3916 275.7941 0008052 230.4993 129.5534 15.25410942 31007
RS95S (QMR-KWT-2)
1 67291U 25313AV  26200.72338960  .00006812  00000-0  25927-3 0  9992
2 67291  97.3911 275.6105 0007834 228.0755 131.9817 15.27042766 30951
Ten-Koh2
1 68261U 25241B   26201.12941802  .00002734  00000-0  12435-3 0  9999
2 68261  51.6565 162.8113 0004648 247.3186 112.7301 15.24199842 19930
JACK-002
1 68417U 26067B   26200.82276654  .00003486  00000-0  16627-3 0  9993
2 68417  97.4587 159.0217 0003317 125.7242 234.4302 15.19745779 16909
DISCO 2
1 68431U 26067R   26200.84980810  .00004175  00000-0  19986-3 0  9994
2 68431  97.4619 159.0381 0001107 161.4437 198.6839 15.19509225 16901
HADES-SA (SpinnyONE)
1 68446U 26067AG  26200.81672256  .00010199  00000-0  47523-3 0  9990
2 68446  97.4421 158.6517 0005367 347.3056  12.8043 15.20074216 16888
PARUS-6U1
1 68456U 26067AS  26200.89064224  .00003023  00000-0  15277-3 0  9998
2 68456  97.4571 158.7619 0004258 329.7353  30.3634 15.17821495 16898
SAL-E
1 68458U 26067AU  26200.81365780  .00004051  00000-0  20151-3 0  9992
2 68458  97.4497 158.6047 0004690 342.0871  18.0197 15.18176983 16886
FSI-SAT 2
1 68792U 26088A   26200.95481874  .00002397  00000-0  16365-3 0  9997
2 68792  97.5113 349.4033 0014094   1.6197 358.5074 15.07061388 13227
OrigamiSat 2
1 68795U 26088D   26200.91776583  .00005610  00000-0  35441-3 0  9997
2 68795  97.5106 349.6096 0013751 329.4733  30.5694 15.09378084 13231
ARICA 2
1 68796U 26088E   26200.92873984  .00001663  00000-0  10999-3 0  9997
2 68796  97.5099 349.5798 0014643 331.1304  28.9113 15.08648236 13231
WASEDA-SAT-ZERO-II
1 68797U 26088F   26200.65344440  .00002229  00000-0  14487-3 0  9993
2 68797  97.5096 349.3313 0014369 331.3831  28.6608 15.08953247 13194
MANGARO-II-Piscus
1 68798U 26088G   26200.97374514  .00001754  00000-0  11462-3 0  9996
2 68798  97.5108 349.6820 0018087 332.9900  27.0386 15.08982927 13249
IO-86
1 40931U          25360.30710720  .00000000  00000-0  12800-3 0    00
2 40931   6.0006 332.5373 0012733 338.8432   8.1437 14.79075515    01
LILIUM-4
1 71922C 26067AC  26089.50133053 -.00014632  00000 0 -74472-3 0    04
2 71922  97.4497  49.1617 0004341   5.9603 355.7042 15.16896692    16
